[{"OBJECT_NAME":"STARLINK-5313","OBJECT_ID":"2023-010AW","EPOCH":"2026-03-09T23:18:47.650176","MEAN_MOTION":14.98330211,"ECCENTRICITY":0.00027416,"INCLINATION":70.0013,"RA_OF_ASC_NODE":3.7787,"ARG_OF_PERICENTER":268.6791,"MEAN_ANOMALY":91.4054,"EPHEMERIS_TYPE":0,"CLASSIFICATION_TYPE":"U","NORAD_CAT_ID":55313,"ELEMENT_SET_NO":999,"REV_AT_EPOCH":17468,"BSTAR":-1.3585395e-5,"MEAN_MOTION_DOT":-2.55e-6,"MEAN_MOTION_DDOT":0},{"OBJECT_NAME":"COSMOS 375","OBJECT_ID":"1970-091A","EPOCH":"2026-03-09T16:41:37.064832","MEAN_MOTION":12.97415752,"ECCENTRICITY":0.09512894,"INCLINATION":62.8181,"RA_OF_ASC_NODE":201.7511,"ARG_OF_PERICENTER":174.0663,"MEAN_ANOMALY":187.2629,"EPHEMERIS_TYPE":0,"CLASSIFICATION_TYPE":"U","NORAD_CAT_ID":4598,"ELEMENT_SET_NO":999,"REV_AT_EPOCH":61567,"BSTAR":0.00022968696,"MEAN_MOTION_DOT":5.02e-6,"MEAN_MOTION_DDOT":0}]
